NORAD_CAT_ID,OBJECT_NAME,OBJECT_TYPE,EPOCH,MEAN_MOTION,ECCENTRICITY,INCLINATION,RA_OF_ASC_NODE,ARG_OF_PERICENTER,MEAN_ANOMALY,BSTAR,MEAN_MOTION_DOT,MEAN_MOTION_DDOT,TLE_LINE0,TLE_LINE1,TLE_LINE2,SEMIMAJOR_AXIS,PERIOD,APOGEE,PERIGEE,DECAYED
53805.0,STARLINK-4763,PAYLOAD,2024-02-22 03:44:40,15.08830498,0.0001766,53.2215,0.5767,100.682,259.4371,4.1519e-05,3.73e-06,0.0,0 STARLINK-4763,1 53805U 22111AJ  24053.15602599  .00000373  00000-0  41519-4 0  9996,2 53805  53.2215   0.5767 0001766 100.6820 259.4371 15.08830498 80514,6917.909,95.438,540.996,538.553,0.0
53805.0,STARLINK-4763,PAYLOAD,2024-02-22 13:16:59,15.08835433,0.0001537,53.2201,358.7888,89.2067,270.9101,7.4254e-05,8.94e-06,0.0,0 STARLINK-4763,1 53805U 22111AJ  24053.55346299  .00000894  00000-0  74254-4 0  9992,2 53805  53.2201 358.7888 0001537  89.2067 270.9101 15.08835433 81381,6917.894,95.438,540.823,538.696,0.0
53805.0,STARLINK-4763,PAYLOAD,2024-02-23 03:35:26,15.08854855,0.0001443,53.2195,356.1132,97.6409,262.4748,9.5661e-05,1.235e-05,0.0,0 STARLINK-4763,1 53805U 22111AJ  24054.14960935  .00001235  00000-0  95661-4 0  9992,2 53805  53.2195 356.1132 0001443  97.6409 262.4748 15.08854855 80668,6917.835,95.437,540.698,538.702,0.0
53805.0,STARLINK-4763,PAYLOAD,2024-02-23 13:07:46,15.08837862,0.0001594,53.222,354.3302,83.1623,276.955,1.3604e-05,-7.2e-07,0.0,0 STARLINK-4763,1 53805U 22111AJ  24054.54706273 -.00000072  00000-0  13604-4 0  9995,2 53805  53.2220 354.3302 0001594  83.1623 276.9550 15.08837862 81538,6917.887,95.438,540.855,538.649,0.0
53805.0,STARLINK-4763,PAYLOAD,2024-02-23 19:29:19,15.08831899,0.0001776,53.219,353.1395,83.2439,276.8755,0.00011759,1.583e-05,0.0,0 STARLINK-4763,1 53805U 22111AJ  24054.81202641  .00001583  00000-0  11759-3 0  9990,2 53805  53.2190 353.1395 0001776  83.2439 276.8755 15.08831899 80765,6917.905,95.438,540.999,538.542,0.0
53805.0,STARLINK-4763,PAYLOAD,2024-02-24 12:58:33,15.08843485,0.0001628,53.2194,349.8665,81.7812,278.3365,0.00016345,2.314e-05,0.0,0 STARLINK-4763,1 53805U 22111AJ  24055.54066170  .00002314  00000-0  16345-3 0  9995,2 53805  53.2194 349.8665 0001628  81.7812 278.3365 15.08843485 81685,6917.87,95.437,540.861,538.609,0.0
53805.0,STARLINK-4763,PAYLOAD,2024-02-25 04:52:23,15.08859807,0.0001628,53.2189,346.893,82.289,277.8287,0.00027486,4.091e-05,0.0,0 STARLINK-4763,1 53805U 22111AJ  24056.20305200  .00004091  00000-0  27486-3 0  9991,2 53805  53.2189 346.8930 0001628  82.2890 277.8287 15.08859807 80976,6917.82,95.436,540.811,538.559,0.0
53805.0,STARLINK-4763,PAYLOAD,2024-02-25 12:49:18,15.08852818,0.0002245,53.2192,345.404,260.06,100.0139,0.00019802,2.866e-05,0.0,0 STARLINK-4763,1 53805U 22111AJ  24056.53423870  .00002866  00000-0  19802-3 0  9992,2 53805  53.2192 345.4040 0002245 260.0600 100.0139 15.08852818 81832,6917.841,95.437,541.259,538.153,0.0
53805.0,STARLINK-4763,PAYLOAD,2024-02-25 19:10:52,15.08838656,0.0001462,53.2173,344.2154,81.0447,279.0711,0.00016897,2.402e-05,0.0,0 STARLINK-4763,1 53805U 22111AJ  24056.79922109  .00002402  00000-0  16897-3 0  9996,2 53805  53.2173 344.2154 0001462  81.0447 279.0711 15.08838656 81066,6917.884,95.438,540.761,538.738,0.0
53805.0,STARLINK-4763,PAYLOAD,2024-02-25 22:21:38,15.08840345,0.0001699,53.2175,343.6233,70.2219,289.8956,0.00019036,2.743e-05,0.0,0 STARLINK-4763,1 53805U 22111AJ  24056.93170027  .00002743  00000-0  19036-3 0  9992,2 53805  53.2175 343.6233 0001699  70.2219 289.8956 15.08840345 81897,6917.879,95.438,540.92,538.569,0.0
53805.0,STARLINK-4763,PAYLOAD,2024-02-26 01:32:24,15.08844636,0.0001648,53.2197,343.0275,79.9442,280.1736,0.00021656,3.161e-05,0.0,0 STARLINK-4763,1 53805U 22111AJ  24057.06417598  .00003161  00000-0  21656-3 0  9990,2 53805  53.2197 343.0275 0001648  79.9442 280.1736 15.08844636 81100,6917.866,95.437,540.871,538.591,0.0
53805.0,STARLINK-4763,PAYLOAD,2024-02-26 22:12:25,15.08840631,0.0001254,53.2161,339.1593,82.7989,277.3146,-2.0316e-05,-6.11e-06,0.0,0 STARLINK-4763,1 53805U 22111AJ  24057.92529821 -.00000611  00000-0 -20316-4 0  9990,2 53805  53.2161 339.1593 0001254  82.7989 277.3146 15.08840631 82049,6917.878,95.438,540.611,538.876,0.0
53805.0,STARLINK-4763,PAYLOAD,2024-02-26 23:47:48,15.08841314,0.0001477,53.217,338.8619,94.4633,265.6528,-4.594e-05,-1.019e-05,0.0,0 STARLINK-4763,1 53805U 22111AJ  24057.99153810 -.00001019  00000-0 -45940-4 0  9991,2 53805  53.2170 338.8619 0001477  94.4633 265.6528 15.08841314 81241,6917.876,95.437,540.763,538.72,0.0
53805.0,STARLINK-4763,PAYLOAD,2024-02-27 04:33:58,15.08837609,0.000156,53.2185,337.9695,83.6632,276.4538,7.7754e-05,9.5e-06,0.0,0 STARLINK-4763,1 53805U 22111AJ  24058.19025984  .00000950  00000-0  77754-4 0  9993,2 53805  53.2185 337.9695 0001560  83.6632 276.4538 15.08837609 82089,6917.888,95.438,540.832,538.674,0.0
53805.0,STARLINK-4763,PAYLOAD,2024-02-27 22:03:13,15.08833927,0.0001616,53.2177,334.6976,101.5922,258.5251,-2.4144e-05,-6.72e-06,0.0,0 STARLINK-4763,1 53805U 22111AJ  24058.91890673 -.00000672  00000-0 -24144-4 0  9996,2 53805  53.2177 334.6976 0001616 101.5922 258.5251 15.08833927 82194,6917.899,95.438,540.882,538.646,0.0
53805.0,STARLINK-4763,PAYLOAD,2024-02-28 01:13:59,15.08837573,0.0001448,53.2185,334.103,96.4422,263.6735,-4.137e-05,-9.46e-06,0.0,0 STARLINK-4763,1 53805U 22111AJ  24059.05138520 -.00000946  00000-0 -41370-4 0  9992,2 53805  53.2185 334.1030 0001448  96.4422 263.6735 15.08837573 81407,6917.888,95.438,540.755,538.751,0.0
53805.0,STARLINK-4763,PAYLOAD,2024-02-28 13:57:04,15.08835461,0.000149,53.2192,331.7245,94.2113,265.9049,6.8442e-05,8.01e-06,0.0,0 STARLINK-4763,1 53805U 22111AJ  24059.58130525  .00000801  00000-0  68442-4 0  9994,2 53805  53.2192 331.7245 0001490  94.2113 265.9049 15.08835461 82291,6917.894,95.438,540.79,538.728,0.0
53805.0,STARLINK-4763,PAYLOAD,2024-02-28 21:54:00,15.08838095,0.0001444,53.2192,330.241,98.5763,261.5392,0.00010256,1.345e-05,0.0,0 STARLINK-4763,1 53805U 22111AJ  24059.91250400  .00001345  00000-0  10256-3 0  9999,2 53805  53.2192 330.2410 0001444  98.5763 261.5392 15.08838095 82341,6917.886,95.438,540.75,538.752,0.0
53805.0,STARLINK-4763,PAYLOAD,2024-02-29 04:15:32,15.08844231,0.0001502,53.2195,329.0497,100.9496,259.1666,0.00014315,1.991e-05,0.0,0 STARLINK-4763,1 53805U 22111AJ  24060.17745988  .00001991  00000-0  14315-3 0  9996,2 53805  53.2195 329.0497 0001502 100.9496 259.1666 15.08844231 81571,6917.867,95.437,540.772,538.693,0.0
53805.0,STARLINK-4763,PAYLOAD,2024-02-29 10:37:05,15.08841204,0.0001317,53.2183,327.8579,94.4898,265.6245,0.0001483,2.073e-05,0.0,0 STARLINK-4763,1 53805U 22111AJ  24060.44242113  .00002073  00000-0  14830-3 0  9992,2 53805  53.2183 327.8579 0001317  94.4898 265.6245 15.08841204 82429,6917.877,95.437,540.653,538.831,0.0
53805.0,STARLINK-4763,PAYLOAD,2024-02-29 21:44:48,15.08833364,0.0001363,53.219,325.779,95.1039,265.0108,1.6518e-05,-2.5e-07,0.0,0 STARLINK-4763,1 53805U 22111AJ  24060.90611184 -.00000025  00000-0  16518-4 0  9993,2 53805  53.2190 325.7790 0001363  95.1039 265.0108 15.08833364 81682,6917.901,95.438,540.709,538.823,0.0
53805.0,STARLINK-4763,PAYLOAD,2024-03-01 10:27:52,15.08837059,0.0001471,53.2194,323.4025,92.2097,267.9063,6.3992e-05,7.31e-06,0.0,0 STARLINK-4763,1 53805U 22111AJ  24061.43602985  .00000731  00000-0  63992-4 0  9992,2 53805  53.2194 323.4025 0001471  92.2097 267.9063 15.08837059 82579,6917.889,95.438,540.772,538.737,0.0
53805.0,STARLINK-4763,PAYLOAD,2024-03-01 21:35:34,15.0883551,0.0001254,53.2189,321.3168,86.5847,273.5289,0.0001887,2.716e-05,0.0,0 STARLINK-4763,1 53805U 22111AJ  24061.89970747  .00002716  00000-0  18870-3 0  9995,2 53805  53.2189 321.3168 0001254  86.5847 273.5289 15.08835510 82647,6917.894,95.438,540.627,538.892,0.0
53805.0,STARLINK-4763,PAYLOAD,2024-03-02 00:46:20,15.08844902,0.0001752,53.2183,320.7224,114.2265,245.891,0.00012091,1.637e-05,0.0,0 STARLINK-4763,1 53805U 22111AJ  24062.03218212  .00001637  00000-0  12091-3 0  9994,2 53805  53.2183 320.7224 0001752 114.2265 245.8910 15.08844902 81853,6917.865,95.437,540.942,538.518,0.0
53805.0,STARLINK-4763,PAYLOAD,2024-03-02 21:26:21,15.08838158,0.0001778,53.2191,316.8575,66.008,294.1098,0.00010346,1.359e-05,0.0,0 STARLINK-4763,1 53805U 22111AJ  24062.89330920  .00001359  00000-0  10346-3 0  9991,2 53805  53.2191 316.8575 0001778  66.0080 294.1098 15.08838158 82798,6917.886,95.438,540.981,538.521,0.0
53805.0,STARLINK-4763,PAYLOAD,2024-03-03 00:37:07,15.08844059,0.0001427,53.219,316.2633,79.6442,280.4711,7.577e-05,9.18e-06,0.0,0 STARLINK-4763,1 53805U 22111AJ  24063.02578499  .00000918  00000-0  75770-4 0  9995,2 53805  53.2190 316.2633 0001427  79.6442 280.4711 15.08844059 82000,6917.868,95.437,540.72,538.746,0.0
53805.0,STARLINK-4763,PAYLOAD,2024-03-03 10:09:26,15.08842551,0.0001305,53.2185,314.4799,95.4589,264.6552,9.2732e-05,1.188e-05,0.0,0 STARLINK-4763,1 53805U 22111AJ  24063.42322495  .00001188  00000-0  92732-4 0  9999,2 53805  53.2185 314.4799 0001305  95.4589 264.6552 15.08842551 82877,6917.873,95.437,540.64,538.835,0.0
53805.0,STARLINK-4763,PAYLOAD,2024-03-03 16:30:59,15.08838789,0.0001312,53.2184,313.2919,88.2999,271.8144,3.1786e-05,2.18e-06,0.0,0 STARLINK-4763,1 53805U 22111AJ  24063.68818870  .00000218  00000-0  31786-4 0  9999,2 53805  53.2184 313.2919 0001312  88.2999 271.8144 15.08838789 82910,6917.884,95.438,540.657,538.841,0.0
53805.0,STARLINK-4763,PAYLOAD,2024-03-04 02:03:16,15.08860869,0.0001692,53.2187,311.5067,68.036,292.0811,0.00019706,2.851e-05,0.0,0 STARLINK-4763,1 53805U 22111AJ  24064.08561038  .00002851  00000-0  19706-3 0  9997,2 53805  53.2187 311.5067 0001692  68.0360 292.0811 15.08860869 82164,6917.817,95.436,540.852,538.511,0.0
53805.0,STARLINK-4763,PAYLOAD,2024-03-04 10:00:13,15.08843351,0.0001092,53.2183,310.0209,86.9771,273.1346,7.9046e-05,9.71e-06,0.0,0 STARLINK-4763,1 53805U 22111AJ  24064.41682086  .00000971  00000-0  79046-4 0  9996,2 53805  53.2183 310.0209 0001092  86.9771 273.1346 15.08843351 82217,6917.87,95.437,540.491,538.98,0.0
